STARLINK-1626           
1 46167U 20057BC  25252.13834237 -.00000449  00000+0 -11263-4 0  9990
2 46167  53.0552  51.6335 0001308  93.1450 266.9689 15.06397422278702
STARLINK-1627           
1 46168U 20057BD  25251.58638212  .00001334  00000+0  10841-3 0  9996
2 46168  53.0560   4.1978 0001364  84.1020 276.0125 15.06411659279317
STARLINK-1628           
1 46169U 20057BE  25252.00005787  .00144349  00000+0  10295-2 0  9996
2 46169  53.0426 322.7861 0007970  14.6152  74.4713 15.72835293  5937
STARLINK-1633           
1 46171U 20057BG  25252.11439149  .00000133  00000+0  27853-4 0  9996
2 46171  53.0565  31.7406 0001294  85.8029 274.3108 15.06399872280234
STARLINK-1635           
1 46172U 20057BH  25252.12914050  .00001014  00000+0  86934-4 0  9991
2 46172  53.0562  31.6735 0001222  89.5020 270.6109 15.06398151280238
STARLINK-1640           
1 46173U 20057BJ  25251.77711672 -.00000165  00000+0  78153-5 0  9999
2 46173  53.0554  53.2574 0001167 100.5162 259.5958 15.06404444278643
STARLINK-1641           
1 46174U 20057BK  25251.71815739  .00000291  00000+0  38455-4 0  9992
2 46174  53.0558  53.5197 0001351  83.4432 276.6711 15.06395642278631
STARLINK-1734           
1 46325U 20062A   25252.25004630  .00212099  00000+0  38241-2 0  9998
2 46325  53.0308  31.3088 0010273 265.9715  82.2778 15.48465590  5952
STARLINK-1654           
1 46326U 20062B   25251.99278428  .00001254  00000+0  10305-3 0  9998
2 46326  53.0535 112.5291 0001879  86.8314 273.2890 15.06399477276928
STARLINK-1686           
1 46328U 20062D   25251.86190956 -.00000541  00000+0 -17408-4 0  9997
2 46328  53.0551  92.8771 0001263  95.1265 264.9868 15.06391529277187
STARLINK-1695           
1 46329U 20062E   25251.96142805  .00000076  00000+0  23996-4 0  9999
2 46329  53.0547  92.4280 0001437  88.7179 271.3974 15.06395956277198
STARLINK-1710           
1 46330U 20062F   25251.85297289  .00067541  00000+0  21605-2 0  9999
2 46330  53.0525  82.7761 0006573 152.0978 208.0376 15.31801080277337
STARLINK-1719           
1 46331U 20062G   25252.05172841 -.00001212  00000+0 -62483-4 0  9995
2 46331  53.0545 112.0233 0001655  91.3971 268.7207 15.06395715276931
STARLINK-1723           
1 46333U 20062J   25252.01118294  .00000529  00000+0  54398-4 0  9999
2 46333  53.0548 112.2077 0001417 102.6390 257.4758 15.06402137276923
STARLINK-1727           
1 46335U 20062L   25252.04066751  .00000093  00000+0  25109-4 0  9998
2 46335  53.0535 112.0719 0001397  86.4487 273.6662 15.06403029276931
STARLINK-1738           
1 46336U 20062M   25251.74893241  .00099598  00000+0  28981-2 0  9994
2 46336  53.0530  84.7862 0005876 198.8358 161.2426 15.34622559277283
