[{"OBJECT_NAME":"STARLINK-1626","OBJECT_ID":"2020-057BC","EPOCH":"2025-09-09T03:19:12.780768","MEAN_MOTION":15.06397422,"ECCENTRICITY":0.00013088,"INCLINATION":53.0552,"RA_OF_ASC_NODE":51.6335,"ARG_OF_PERICENTER":93.145,"MEAN_ANOMALY":266.9689,"EPHEMERIS_TYPE":0,"CLASSIFICATION_TYPE":"U","NORAD_CAT_ID":46167,"ELEMENT_SET_NO":999,"REV_AT_EPOCH":27870,"BSTAR":-1.1263414e-5,"MEAN_MOTION_DOT":-4.49e-6,"MEAN_MOTION_DDOT":0},{"OBJECT_NAME":"STARLINK-1627","OBJECT_ID":"2020-057BD","EPOCH":"2025-09-08T14:04:23.415168","MEAN_MOTION":15.06411659,"ECCENTRICITY":0.0001364,"INCLINATION":53.056,"RA_OF_ASC_NODE":4.1978,"ARG_OF_PERICENTER":84.102,"MEAN_ANOMALY":276.0125,"EPHEMERIS_TYPE":0,"CLASSIFICATION_TYPE":"U","NORAD_CAT_ID":46168,"ELEMENT_SET_NO":999,"REV_AT_EPOCH":27931,"BSTAR":0.00010840829,"MEAN_MOTION_DOT":1.334e-5,"MEAN_MOTION_DDOT":0},{"OBJECT_NAME":"STARLINK-1628","OBJECT_ID":"2020-057BE","EPOCH":"2025-09-09T00:00:04.999968","MEAN_MOTION":15.72835293,"ECCENTRICITY":0.00079707,"INCLINATION":53.0426,"RA_OF_ASC_NODE":322.7861,"ARG_OF_PERICENTER":14.6152,"MEAN_ANOMALY":74.4713,"EPHEMERIS_TYPE":0,"CLASSIFICATION_TYPE":"U","NORAD_CAT_ID":46169,"ELEMENT_SET_NO":999,"REV_AT_EPOCH":593,"BSTAR":0.0010294828,"MEAN_MOTION_DOT":0.00144349,"MEAN_MOTION_DDOT":0},{"OBJECT_NAME":"STARLINK-1633","OBJECT_ID":"2020-057BG","EPOCH":"2025-09-09T02:44:43.424736","MEAN_MOTION":15.06399872,"ECCENTRICITY":0.00012945,"INCLINATION":53.0565,"RA_OF_ASC_NODE":31.7406,"ARG_OF_PERICENTER":85.8029,"MEAN_ANOMALY":274.3108,"EPHEMERIS_TYPE":0,"CLASSIFICATION_TYPE":"U","NORAD_CAT_ID":46171,"ELEMENT_SET_NO":999,"REV_AT_EPOCH":28023,"BSTAR":2.7853136e-5,"MEAN_MOTION_DOT":1.33e-6,"MEAN_MOTION_DDOT":0},{"OBJECT_NAME":"STARLINK-1635","OBJECT_ID":"2020-057BH","EPOCH":"2025-09-09T03:05:57.739200","MEAN_MOTION":15.06398151,"ECCENTRICITY":0.00012225,"INCLINATION":53.0562,"RA_OF_ASC_NODE":31.6735,"ARG_OF_PERICENTER":89.502,"MEAN_ANOMALY":270.6109,"EPHEMERIS_TYPE":0,"CLASSIFICATION_TYPE":"U","NORAD_CAT_ID":46172,"ELEMENT_SET_NO":999,"REV_AT_EPOCH":28023,"BSTAR":8.6934268e-5,"MEAN_MOTION_DOT":1.014e-5,"MEAN_MOTION_DDOT":0},{"OBJECT_NAME":"STARLINK-1640","OBJECT_ID":"2020-057BJ","EPOCH":"2025-09-08T18:39:02.884608","MEAN_MOTION":15.06404444,"ECCENTRICITY":0.00011676,"INCLINATION":53.0554,"RA_OF_ASC_NODE":53.2574,"ARG_OF_PERICENTER":100.5162,"MEAN_ANOMALY":259.5958,"EPHEMERIS_TYPE":0,"CLASSIFICATION_TYPE":"U","NORAD_CAT_ID":46173,"ELEMENT_SET_NO":999,"REV_AT_EPOCH":27864,"BSTAR":7.815307e-6,"MEAN_MOTION_DOT":-1.65e-6,"MEAN_MOTION_DDOT":0},{"OBJECT_NAME":"STARLINK-1641","OBJECT_ID":"2020-057BK","EPOCH":"2025-09-08T17:14:08.798496","MEAN_MOTION":15.06395642,"ECCENTRICITY":0.0001351,"INCLINATION":53.0558,"RA_OF_ASC_NODE":53.5197,"ARG_OF_PERICENTER":83.4432,"MEAN_ANOMALY":276.6711,"EPHEMERIS_TYPE":0,"CLASSIFICATION_TYPE":"U","NORAD_CAT_ID":46174,"ELEMENT_SET_NO":999,"REV_AT_EPOCH":27863,"BSTAR":3.8455354e-5,"MEAN_MOTION_DOT":2.91e-6,"MEAN_MOTION_DDOT":0},{"OBJECT_NAME":"STARLINK-1734","OBJECT_ID":"2020-062A","EPOCH":"2025-09-09T06:00:04.000320","MEAN_MOTION":15.4846559,"ECCENTRICITY":0.00102734,"INCLINATION":53.0308,"RA_OF_ASC_NODE":31.3088,"ARG_OF_PERICENTER":265.9715,"MEAN_ANOMALY":82.2778,"EPHEMERIS_TYPE":0,"CLASSIFICATION_TYPE":"U","NORAD_CAT_ID":46325,"ELEMENT_SET_NO":999,"REV_AT_EPOCH":595,"BSTAR":0.0038241064,"MEAN_MOTION_DOT":0.00212099,"MEAN_MOTION_DDOT":0},{"OBJECT_NAME":"STARLINK-1654","OBJECT_ID":"2020-062B","EPOCH":"2025-09-08T23:49:36.561792","MEAN_MOTION":15.06399477,"ECCENTRICITY":0.00018793,"INCLINATION":53.0535,"RA_OF_ASC_NODE":112.5291,"ARG_OF_PERICENTER":86.8314,"MEAN_ANOMALY":273.289,"EPHEMERIS_TYPE":0,"CLASSIFICATION_TYPE":"U","NORAD_CAT_ID":46326,"ELEMENT_SET_NO":999,"REV_AT_EPOCH":27692,"BSTAR":0.00010305347,"MEAN_MOTION_DOT":1.254e-5,"MEAN_MOTION_DDOT":0},{"OBJECT_NAME":"STARLINK-1686","OBJECT_ID":"2020-062D","EPOCH":"2025-09-08T20:41:08.985984","MEAN_MOTION":15.06391529,"ECCENTRICITY":0.00012636,"INCLINATION":53.0551,"RA_OF_ASC_NODE":92.8771,"ARG_OF_PERICENTER":95.1265,"MEAN_ANOMALY":264.9868,"EPHEMERIS_TYPE":0,"CLASSIFICATION_TYPE":"U","NORAD_CAT_ID":46328,"ELEMENT_SET_NO":999,"REV_AT_EPOCH":27718,"BSTAR":-1.7407847e-5,"MEAN_MOTION_DOT":-5.41e-6,"MEAN_MOTION_DDOT":0},{"OBJECT_NAME":"STARLINK-1695","OBJECT_ID":"2020-062E","EPOCH":"2025-09-08T23:04:27.383520","MEAN_MOTION":15.06395956,"ECCENTRICITY":0.00014371,"INCLINATION":53.0547,"RA_OF_ASC_NODE":92.428,"ARG_OF_PERICENTER":88.7179,"MEAN_ANOMALY":271.3974,"EPHEMERIS_TYPE":0,"CLASSIFICATION_TYPE":"U","NORAD_CAT_ID":46329,"ELEMENT_SET_NO":999,"REV_AT_EPOCH":27719,"BSTAR":2.3995623e-5,"MEAN_MOTION_DOT":7.6e-7,"MEAN_MOTION_DDOT":0},{"OBJECT_NAME":"STARLINK-1710","OBJECT_ID":"2020-062F","EPOCH":"2025-09-08T20:28:16.857696","MEAN_MOTION":15.3180108,"ECCENTRICITY":0.00065736,"INCLINATION":53.0525,"RA_OF_ASC_NODE":82.7761,"ARG_OF_PERICENTER":152.0978,"MEAN_ANOMALY":208.0376,"EPHEMERIS_TYPE":0,"CLASSIFICATION_TYPE":"U","NORAD_CAT_ID":46330,"ELEMENT_SET_NO":999,"REV_AT_EPOCH":27733,"BSTAR":0.0021605362,"MEAN_MOTION_DOT":0.00067541,"MEAN_MOTION_DDOT":0},{"OBJECT_NAME":"STARLINK-1719","OBJECT_ID":"2020-062G","EPOCH":"2025-09-09T01:14:29.334624","MEAN_MOTION":15.06395715,"ECCENTRICITY":0.00016556,"INCLINATION":53.0545,"RA_OF_ASC_NODE":112.0233,"ARG_OF_PERICENTER":91.3971,"MEAN_ANOMALY":268.7207,"EPHEMERIS_TYPE":0,"CLASSIFICATION_TYPE":"U","NORAD_CAT_ID":46331,"ELEMENT_SET_NO":999,"REV_AT_EPOCH":27693,"BSTAR":-6.2483474e-5,"MEAN_MOTION_DOT":-1.212e-5,"MEAN_MOTION_DDOT":0},{"OBJECT_NAME":"STARLINK-1723","OBJECT_ID":"2020-062J","EPOCH":"2025-09-09T00:16:06.206016","MEAN_MOTION":15.06402137,"ECCENTRICITY":0.0001417,"INCLINATION":53.0548,"RA_OF_ASC_NODE":112.2077,"ARG_OF_PERICENTER":102.639,"MEAN_ANOMALY":257.4758,"EPHEMERIS_TYPE":0,"CLASSIFICATION_TYPE":"U","NORAD_CAT_ID":46333,"ELEMENT_SET_NO":999,"REV_AT_EPOCH":27692,"BSTAR":5.4397504e-5,"MEAN_MOTION_DOT":5.29e-6,"MEAN_MOTION_DDOT":0},{"OBJECT_NAME":"STARLINK-1727","OBJECT_ID":"2020-062L","EPOCH":"2025-09-09T00:58:33.672864","MEAN_MOTION":15.06403029,"ECCENTRICITY":0.00013978,"INCLINATION":53.0535,"RA_OF_ASC_NODE":112.0719,"ARG_OF_PERICENTER":86.4487,"MEAN_ANOMALY":273.6662,"EPHEMERIS_TYPE":0,"CLASSIFICATION_TYPE":"U","NORAD_CAT_ID":46335,"ELEMENT_SET_NO":999,"REV_AT_EPOCH":27693,"BSTAR":2.5109087e-5,"MEAN_MOTION_DOT":9.3e-7,"MEAN_MOTION_DDOT":0},{"OBJECT_NAME":"STARLINK-1738","OBJECT_ID":"2020-062M","EPOCH":"2025-09-08T17:58:27.760224","MEAN_MOTION":15.34622559,"ECCENTRICITY":0.00058761,"INCLINATION":53.053,"RA_OF_ASC_NODE":84.7862,"ARG_OF_PERICENTER":198.8358,"MEAN_ANOMALY":161.2426,"EPHEMERIS_TYPE":0,"CLASSIFICATION_TYPE":"U","NORAD_CAT_ID":46336,"ELEMENT_SET_NO":999,"REV_AT_EPOCH":27728,"BSTAR":0.0028980855,"MEAN_MOTION_DOT":0.00099598,"MEAN_MOTION_DDOT":0}]
